GLOBALSTAR M075         
1 37192U 10054E   25204.13884318 -.00000091  00000+0  68907-4 0  9995
2 37192  51.9953  72.0725 0000752  66.5037 110.7245 12.62266284680913
GLOBALSTAR M073         
1 37193U 10054F   25204.42433061 -.00000105  00000+0 -67682-5 0  9990
2 37193  52.0081 345.0488 0000897  93.7055 301.9738 12.62272562682468
GLOBALSTAR M083         
1 37739U 11033A   25204.51225281 -.00000075  00000+0  15875-3 0  9997
2 37739  51.9865 293.4678 0000403 119.3936 253.9840 12.62260266651807
GLOBALSTAR M088         
1 37740U 11033B   25204.24801127 -.00000092  00000+0  63793-4 0  9990
2 37740  52.0187 199.8980 0000039 202.7370 170.4436 12.62266979647241
GLOBALSTAR M091         
1 37741U 11033C   25204.29630058 -.00000115  00000+0 -60119-4 0  9995
2 37741  51.9980 163.2004 0000379 346.0870 187.3813 12.62269412648003
GLOBALSTAR M085         
1 37742U 11033D   25204.52010736 -.00000107  00000+0 -16866-4 0  9998
2 37742  51.9864 113.5248 0000584  27.8995 143.7226 12.62269887648777
GLOBALSTAR M081         
1 37743U 11033E   25204.46761764 -.00000109  00000+0 -27386-4 0  9997
2 37743  51.9956 116.4967 0000733  36.4779 134.7947 12.62267107648809
GLOBALSTAR M089         
1 37744U 11033F   25203.85341723 -.00000099  00000+0  25896-4 0  9990
2 37744  51.9935  72.5864 0000953  78.7007   1.3381 12.62265400649448
